{"type": "FeatureCollection", "features": [ {"type": "Feature", "properties": {"norad_id": 44476, "name": "INTELSAT 39 (IS-39)", "group": "intelsat", "lat": 0.02826407947006734, "lon": 135.2916140562335, "alt_km": 35782.450946532306, "timestamp": "2025-12-27T22:26:48.280708+00:00", "meta": {"OBJECT_NAME": "INTELSAT 39 (IS-39)", "OBJECT_ID": "2019-049B", "EPOCH": "2025-12-27T11:35:05.959104", "MEAN_MOTION": 1.00270962, "ECCENTRICITY": 9.83e-05, "INCLINATION": 0.0171, "RA_OF_ASC_NODE": 7.101, "ARG_OF_PERICENTER": 150.4764, "MEAN_ANOMALY": 174.3545, "EPHEMERIS_TYPE": 0, "CLASSIFICATION_TYPE": "U", "NORAD_CAT_ID": 44476, "ELEMENT_SET_NO": 999, "REV_AT_EPOCH": 2340, "BSTAR": 0, "MEAN_MOTION_DOT": 5.6e-07, "MEAN_MOTION_DDOT": 0}, "tle": {"line1": "1 44476U 19049B   25361.48270786  .00000056  00000+0  00000+0 0  9996", "line2": "2 44476   0.0171   7.1010 0000983 150.4764 174.3545  1.00270962 23407"}}, "geometry": {"type": "Point", "coordinates": [135.2916140562335, 0.02826407947006734]}}, {"type": "Feature", "properties": {"norad_id": 46114, "name": "GALAXY 30 (G-30)", "group": "intelsat", "lat": -0.024568972148427987, "lon": -51.638647863696434, "alt_km": 35777.77346944866, "timestamp": "2025-12-27T22:26:48.280719+00:00", "meta": {"OBJECT_NAME": "GALAXY 30 (G-30)", "OBJECT_ID": "2020-056C", "EPOCH": "2025-12-27T10:41:41.072928", "MEAN_MOTION": 1.00271311, "ECCENTRICITY": 0.0002344, "INCLINATION": 0.0127, "RA_OF_ASC_NODE": 356.392, "ARG_OF_PERICENTER": 279.9567, "MEAN_ANOMALY": 215.2437, "EPHEMERIS_TYPE": 0, "CLASSIFICATION_TYPE": "U", "NORAD_CAT_ID": 46114, "ELEMENT_SET_NO": 999, "REV_AT_EPOCH": 1957, "BSTAR": 0, "MEAN_MOTION_DOT": 5.9e-07, "MEAN_MOTION_DDOT": 0}, "tle": {"line1": "1 46114U 20056C   25361.44561427  .00000059  00000+0  00000+0 0  9991", "line2": "2 46114   0.0127 356.3920 0002344 279.9567 215.2437  1.00271311 19576"}}, "geometry": {"type": "Point", "coordinates": [-51.638647863696434, -0.024568972148427987]}}, {"type": "Feature", "properties": {"norad_id": 54026, "name": "GALAXY 33 (G-33)", "group": "intelsat", "lat": -0.03130430570142151, "lon": -59.63767489835912, "alt_km": 35779.17694043849, "timestamp": "2025-12-27T22:26:48.280731+00:00", "meta": {"OBJECT_NAME": "GALAXY 33 (G-33)", "OBJECT_ID": "2022-128A", "EPOCH": "2025-12-27T10:39:26.288064", "MEAN_MOTION": 1.00271521, "ECCENTRICITY": 0.0001861, "INCLINATION": 0.0176, "RA_OF_ASC_NODE": 356.8453, "ARG_OF_PERICENTER": 275.2444, "MEAN_ANOMALY": 210.9443, "EPHEMERIS_TYPE": 0, "CLASSIFICATION_TYPE": "U", "NORAD_CAT_ID": 54026, "ELEMENT_SET_NO": 999, "REV_AT_EPOCH": 1202, "BSTAR": 0, "MEAN_MOTION_DOT": 1.01e-06, "MEAN_MOTION_DDOT": 0}, "tle": {"line1": "1 54026U 22128A   25361.44405426  .00000101  00000+0  00000+0 0  9998", "line2": "2 54026   0.0176 356.8453 0001861 275.2444 210.9443  1.00271521 12028"}}, "geometry": {"type": "Point", "coordinates": [-59.63767489835912, -0.03130430570142151]}}, {"type": "Feature", "properties": {"norad_id": 54027, "name": "GALAXY 34 (G-34)", "group": "intelsat", "lat": -0.04021355204725955, "lon": -55.592958642984634, "alt_km": 35780.3844883941, "timestamp": "2025-12-27T22:26:48.280742+00:00", "meta": {"OBJECT_NAME": "GALAXY 34 (G-34)", "OBJECT_ID": "2022-128B", "EPOCH": "2025-12-27T10:40:33.680064", "MEAN_MOTION": 1.00270646, "ECCENTRICITY": 0.0001697, "INCLINATION": 0.0236, "RA_OF_ASC_NODE": 20.6638, "ARG_OF_PERICENTER": 250.1205, "MEAN_ANOMALY": 216.5768, "EPHEMERIS_TYPE": 0, "CLASSIFICATION_TYPE": "U", "NORAD_CAT_ID": 54027, "ELEMENT_SET_NO": 999, "REV_AT_EPOCH": 1219, "BSTAR": 0, "MEAN_MOTION_DOT": 0, "MEAN_MOTION_DDOT": 0}, "tle": {"line1": "1 54027U 22128B   25361.44483426  .00000000  00000+0  00000+0 0  9993", "line2": "2 54027   0.0236  20.6638 0001697 250.1205 216.5768  1.00270646 12198"}}, "geometry": {"type": "Point", "coordinates": [-55.592958642984634, -0.04021355204725955]}}, {"type": "Feature", "properties": {"norad_id": 54243, "name": "GALAXY 31 (G-31)", "group": "intelsat", "lat": -0.025744592685379132, "lon": -47.65181200278136, "alt_km": 35779.30258635927, "timestamp": "2025-12-27T22:26:48.280753+00:00", "meta": {"OBJECT_NAME": "GALAXY 31 (G-31)", "OBJECT_ID": "2022-153A", "EPOCH": "2025-12-27T09:36:38.709792", "MEAN_MOTION": 1.00270638, "ECCENTRICITY": 0.000186, "INCLINATION": 0.0105, "RA_OF_ASC_NODE": 18.1667, "ARG_OF_PERICENTER": 268.3104, "MEAN_ANOMALY": 192.804, "EPHEMERIS_TYPE": 0, "CLASSIFICATION_TYPE": "U", "NORAD_CAT_ID": 54243, "ELEMENT_SET_NO": 999, "REV_AT_EPOCH": 541, "BSTAR": 0, "MEAN_MOTION_DOT": 0, "MEAN_MOTION_DDOT": 0}, "tle": {"line1": "1 54243U 22153A   25361.40044803  .00000000  00000+0  00000+0 0  9999", "line2": "2 54243   0.0105  18.1667 0001860 268.3104 192.8040  1.00270638  5415"}}, "geometry": {"type": "Point", "coordinates": [-47.65181200278136, -0.025744592685379132]}}, {"type": "Feature", "properties": {"norad_id": 54244, "name": "GALAXY 32 (G-32)", "group": "intelsat", "lat": -0.016879365371328996, "lon": -17.631571728733782, "alt_km": 35778.36796616672, "timestamp": "2025-12-27T22:26:48.280764+00:00", "meta": {"OBJECT_NAME": "GALAXY 32 (G-32)", "OBJECT_ID": "2022-153B", "EPOCH": "2025-12-27T05:43:17.150016", "MEAN_MOTION": 1.00271625, "ECCENTRICITY": 0.00021, "INCLINATION": 0.0101, "RA_OF_ASC_NODE": 27.3802, "ARG_OF_PERICENTER": 286.8515, "MEAN_ANOMALY": 136.5664, "EPHEMERIS_TYPE": 0, "CLASSIFICATION_TYPE": "U", "NORAD_CAT_ID": 54244, "ELEMENT_SET_NO": 999, "REV_AT_EPOCH": 1142, "BSTAR": 0, "MEAN_MOTION_DOT": -1.52e-06, "MEAN_MOTION_DDOT": 0}, "tle": {"line1": "1 54244U 22153B   25361.23839294 -.00000152  00000+0  00000+0 0  9996", "line2": "2 54244   0.0101  27.3802 0002100 286.8515 136.5664  1.00271625 11426"}}, "geometry": {"type": "Point", "coordinates": [-17.631571728733782, -0.016879365371328996]}}, {"type": "Feature", "properties": {"norad_id": 54741, "name": "GALAXY 35 (G-35)", "group": "intelsat", "lat": -0.010373985194977836, "lon": -19.72963028615073, "alt_km": 35781.59231773068, "timestamp": "2025-12-27T22:26:48.280776+00:00", "meta": {"OBJECT_NAME": "GALAXY 35 (G-35)", "OBJECT_ID": "2022-170A", "EPOCH": "2025-12-27T10:50:47.702400", "MEAN_MOTION": 1.00268817, "ECCENTRICITY": 0.0002633, "INCLINATION": 0.0117, "RA_OF_ASC_NODE": 357.004, "ARG_OF_PERICENTER": 281.9488, "MEAN_ANOMALY": 246.8247, "EPHEMERIS_TYPE": 0, "CLASSIFICATION_TYPE": "U", "NORAD_CAT_ID": 54741, "ELEMENT_SET_NO": 999, "REV_AT_EPOCH": 1117, "BSTAR": 0, "MEAN_MOTION_DOT": 0, "MEAN_MOTION_DDOT": 0}, "tle": {"line1": "1 54741U 22170A   25361.45194100  .00000000  00000+0  00000+0 0  9992", "line2": "2 54741   0.0117 357.0040 0002633 281.9488 246.8247  1.00268817 11171"}}, "geometry": {"type": "Point", "coordinates": [-19.72963028615073, -0.010373985194977836]}}, {"type": "Feature", "properties": {"norad_id": 54742, "name": "GALAXY 36 (G-36)", "group": "intelsat", "lat": -0.021923699818498177, "lon": -15.637117322405182, "alt_km": 35784.32051801885, "timestamp": "2025-12-27T22:26:48.280787+00:00", "meta": {"OBJECT_NAME": "GALAXY 36 (G-36)", "OBJECT_ID": "2022-170B", "EPOCH": "2025-12-27T05:39:55.754208", "MEAN_MOTION": 1.00271515, "ECCENTRICITY": 4.61e-05, "INCLINATION": 0.0242, "RA_OF_ASC_NODE": 105.4723, "ARG_OF_PERICENTER": 224.8294, "MEAN_ANOMALY": 121.6598, "EPHEMERIS_TYPE": 0, "CLASSIFICATION_TYPE": "U", "NORAD_CAT_ID": 54742, "ELEMENT_SET_NO": 999, "REV_AT_EPOCH": 1105, "BSTAR": 0, "MEAN_MOTION_DOT": -1.63e-06, "MEAN_MOTION_DDOT": 0}, "tle": {"line1": "1 54742U 22170B   25361.23606197 -.00000163  00000+0  00000+0 0  9994", "line2": "2 54742   0.0242 105.4723 0000461 224.8294 121.6598  1.00271515 11057"}}, "geometry": {"type": "Point", "coordinates": [-15.637117322405182, -0.021923699818498177]}}, {"type": "Feature", "properties": {"norad_id": 57493, "name": "GALAXY 37 (G-37)", "group": "intelsat", "lat": -0.028819173596552783, "lon": -53.641259188678724, "alt_km": 35777.52472441865, "timestamp": "2025-12-27T22:26:48.280798+00:00", "meta": {"OBJECT_NAME": "GALAXY 37 (G-37)", "OBJECT_ID": "2023-112A", "EPOCH": "2025-12-27T11:37:38.574336", "MEAN_MOTION": 1.00272027, "ECCENTRICITY": 0.0002235, "INCLINATION": 0.0142, "RA_OF_ASC_NODE": 48.5761, "ARG_OF_PERICENTER": 231.2535, "MEAN_ANOMALY": 223.7896, "EPHEMERIS_TYPE": 0, "CLASSIFICATION_TYPE": "U", "NORAD_CAT_ID": 57493, "ELEMENT_SET_NO": 999, "REV_AT_EPOCH": 882, "BSTAR": 0, "MEAN_MOTION_DOT": 7e-07, "MEAN_MOTION_DDOT": 0}, "tle": {"line1": "1 57493U 23112A   25361.48447424  .00000070  00000+0  00000+0 0  9996", "line2": "2 57493   0.0142  48.5761 0002235 231.2535 223.7896  1.00272027  8827"}}, "geometry": {"type": "Point", "coordinates": [-53.641259188678724, -0.028819173596552783]}}]}